{
    "links": {
        "self": "http://www.neowsapp.com/rest/v1/neo/3740102?api_key=iIulBulltgU6a56xZRHN4H3l9WmuAYTsLGpBGhQ2"
    },
    "id": "3740102",
    "neo_reference_id": "3740102",
    "name": "(2016 AE166)",
    "designation": "2016 AE166",
    "nasa_jpl_url": "http://ssd.jpl.nasa.gov/sbdb.cgi?sstr=3740102",
    "absolute_magnitude_h": 21.3,
    "estimated_diameter": {
        "kilometers": {
            "estimated_diameter_min": 0.1460679643,
            "estimated_diameter_max": 0.3266178974
        },
        "meters": {
            "estimated_diameter_min": 146.0679642714,
            "estimated_diameter_max": 326.6178974458
        },
        "miles": {
            "estimated_diameter_min": 0.090762397,
            "estimated_diameter_max": 0.2029508896
        },
        "feet": {
            "estimated_diameter_min": 479.2256199,
            "estimated_diameter_max": 1071.581062656
        }
    },
    "is_potentially_hazardous_asteroid": false,
    "close_approach_data": [
        {
            "close_approach_date": "2016-01-15",
            "close_approach_date_full": "2016-Jan-15 09:53",
            "epoch_date_close_approach": 1452851580000,
            "relative_velocity": {
                "kilometers_per_second": "19.3174233554",
                "kilometers_per_hour": "69542.7240793432",
                "miles_per_hour": "43211.1443036341"
            },
            "miss_distance": {
                "astronomical": "0.2064861119",
                "lunar": "80.3230975291",
                "kilometers": "30889882.524821653",
                "miles": "19194082.9594706914"
            },
            "orbiting_body": "Earth"
        },
        {
            "close_approach_date": "2023-01-04",
            "close_approach_date_full": "2023-Jan-04 10:59",
            "epoch_date_close_approach": 1672829940000,
            "relative_velocity": {
                "kilometers_per_second": "20.0919191712",
                "kilometers_per_hour": "72330.9090161882",
                "miles_per_hour": "44943.6139939754"
            },
            "miss_distance": {
                "astronomical": "0.1458866671",
                "lunar": "56.7499135019",
                "kilometers": "21824334.659559077",
                "miles": "13561012.7249341826"
            },
            "orbiting_body": "Earth"
        },
        {
            "close_approach_date": "2029-12-23",
            "close_approach_date_full": "2029-Dec-23 16:17",
            "epoch_date_close_approach": 1892737020000,
            "relative_velocity": {
                "kilometers_per_second": "24.0924381478",
                "kilometers_per_hour": "86732.7773320228",
                "miles_per_hour": "53892.3748927783"
            },
            "miss_distance": {
                "astronomical": "0.4389843349",
                "lunar": "170.7649062761",
                "kilometers": "65671121.464406663",
                "miles": "40806142.6720034294"
            },
            "orbiting_body": "Earth"
        }
    ],
    "orbital_data": {
        "orbit_id": "9",
        "orbit_determination_date": "2017-04-06 08:29:06",
        "first_observation_date": "2016-01-14",
        "last_observation_date": "2016-02-16",
        "data_arc_in_days": 33,
        "observations_used": 46,
        "orbit_uncertainty": "7",
        "minimum_orbit_intersection": ".0845907",
        "jupiter_tisserand_invariant": "3.852",
        "epoch_osculation": "2459000.5",
        "eccentricity": ".3965373568816445",
        "semi_major_axis": "1.750960950974453",
        "inclination": "34.27963272012247",
        "ascending_node_longitude": "106.81127619",
        "orbital_period": "846.278130594832",
        "perihelion_distance": "1.056639523472072",
        "perihelion_argument": "16.17718691097132",
        "aphelion_distance": "2.445282378476833",
        "perihelion_time": "2459114.017977799723",
        "mean_anomaly": "311.7103532154658",
        "mean_motion": ".4253920631825417",
        "equinox": "J2000",
        "orbit_class": {
            "orbit_class_type": "AMO",
            "orbit_class_description": "Near-Earth asteroid orbits similar to that of 1221 Amor",
            "orbit_class_range": "1.017 AU < q (perihelion) < 1.3 AU"
        }
    },
    "is_sentry_object": false
}